SES-15                  
1 42709U 17026A   17346.15547086  .00000091  00000-0  00000+0 0  9994
2 42709   0.0535 140.9917 0000775 181.1282  37.8800  1.00271995  3014
